{
  "type": "FeatureCollection",
  "features": [
    {
      "type": "Feature",
      "properties": {
        "norad_id": 39773,
        "name": "EUTELSAT 3B",
        "group": "eutelsat",
        "lat": 0.07393361915374179,
        "lon": 48.81843158133054,
        "alt_km": 35805.859624622586,
        "timestamp": "2025-12-10T21:43:21.757975+00:00",
        "meta_object_name": "EUTELSAT 3B",
        "meta_object_id": "2014-030A",
        "meta_epoch": "2025-12-10T06:29:38.861952",
        "meta_mean_motion": 1.00271741,
        "meta_eccentricity": 0.00046891,
        "meta_inclination": 0.0626,
        "meta_ra_of_asc_node": 343.8632,
        "meta_arg_of_pericenter": 244.6896,
        "meta_mean_anomaly": 311.215,
        "meta_ephemeris_type": 0,
        "meta_classification_type": "U",
        "meta_norad_cat_id": 39773,
        "meta_element_set_no": 999,
        "meta_rev_at_epoch": 4217,
        "meta_bstar": 0,
        "meta_mean_motion_dot": 2.3e-07,
        "meta_mean_motion_ddot": 0,
        "tle_line1": "1 39773U 14030A   25344.27058868  .00000023  00000+0  00000+0 0  9992",
        "tle_line2": "2 39773   0.0626 343.8632 0004689 244.6896 311.2150  1.00271741 42170"
      },
      "geometry": {
        "type": "Point",
        "coordinates": [
          48.81843158133054,
          0.07393361915374179
        ]
      }
    },
    {
      "type": "Feature",
      "properties": {
        "norad_id": 40425,
        "name": "EUTELSAT 115 WEST B",
        "group": "eutelsat",
        "lat": 0.005514860495995405,
        "lon": -69.19521418762501,
        "alt_km": 35787.468159337324,
        "timestamp": "2025-12-10T21:43:21.757987+00:00",
        "meta_object_name": "EUTELSAT 115 WEST B",
        "meta_object_id": "2015-010B",
        "meta_epoch": "2025-12-10T13:37:30.262368",
        "meta_mean_motion": 1.00270169,
        "meta_eccentricity": 2.488e-05,
        "meta_inclination": 0.0096,
        "meta_ra_of_asc_node": 142.1044,
        "meta_arg_of_pericenter": 302.6393,
        "meta_mean_anomaly": 84.2706,
        "meta_ephemeris_type": 0,
        "meta_classification_type": "U",
        "meta_norad_cat_id": 40425,
        "meta_element_set_no": 999,
        "meta_rev_at_epoch": 3950,
        "meta_bstar": 0,
        "meta_mean_motion_dot": -2.1e-07,
        "meta_mean_motion_ddot": 0,
        "tle_line1": "1 40425U 15010B   25344.56771137 -.00000021  00000+0  00000+0 0  9999",
        "tle_line2": "2 40425   0.0096 142.1044 0000248 302.6393  84.2706  1.00270169 39508"
      },
      "geometry": {
        "type": "Point",
        "coordinates": [
          -69.19521418762501,
          0.005514860495995405
        ]
      }
    },
    {
      "type": "Feature",
      "properties": {
        "norad_id": 40875,
        "name": "EUTELSAT 8 WEST B",
        "group": "eutelsat",
        "lat": 0.05233965669838205,
        "lon": 37.75879436757014,
        "alt_km": 35799.14350829469,
        "timestamp": "2025-12-10T21:43:21.757999+00:00",
        "meta_object_name": "EUTELSAT 8 WEST B",
        "meta_object_id": "2015-039B",
        "meta_epoch": "2025-12-10T06:37:26.586624",
        "meta_mean_motion": 1.00271535,
        "meta_eccentricity": 0.00041753,
        "meta_inclination": 0.0648,
        "meta_ra_of_asc_node": 2.5239,
        "meta_arg_of_pericenter": 257.8515,
        "meta_mean_anomaly": 270.2548,
        "meta_ephemeris_type": 0,
        "meta_classification_type": "U",
        "meta_norad_cat_id": 40875,
        "meta_element_set_no": 999,
        "meta_rev_at_epoch": 3776,
        "meta_bstar": 0,
        "meta_mean_motion_dot": -6.2e-07,
        "meta_mean_motion_ddot": 0,
        "tle_line1": "1 40875U 15039B   25344.27600216 -.00000062  00000+0  00000+0 0  9991",
        "tle_line2": "2 40875   0.0648   2.5239 0004175 257.8515 270.2548  1.00271535 37760"
      },
      "geometry": {
        "type": "Point",
        "coordinates": [
          37.75879436757014,
          0.05233965669838205
        ]
      }
    },
    {
      "type": "Feature",
      "properties": {
        "norad_id": 41310,
        "name": "EUTELSAT 9B",
        "group": "eutelsat",
        "lat": 0.014046966534382603,
        "lon": 54.757479036271846,
        "alt_km": 35803.40889679109,
        "timestamp": "2025-12-10T21:43:21.758011+00:00",
        "meta_object_name": "EUTELSAT 9B",
        "meta_object_id": "2016-005A",
        "meta_epoch": "2025-12-10T06:21:38.695680",
        "meta_mean_motion": 1.00272631,
        "meta_eccentricity": 0.00048393,
        "meta_inclination": 0.0388,
        "meta_ra_of_asc_node": 57.1944,
        "meta_arg_of_pericenter": 208.2666,
        "meta_mean_anomaly": 278.2089,
        "meta_ephemeris_type": 0,
        "meta_classification_type": "U",
        "meta_norad_cat_id": 41310,
        "meta_element_set_no": 999,
        "meta_rev_at_epoch": 3622,
        "meta_bstar": 0,
        "meta_mean_motion_dot": 6.5e-07,
        "meta_mean_motion_ddot": 0,
        "tle_line1": "1 41310U 16005A   25344.26503120  .00000065  00000+0  00000+0 0  9997",
        "tle_line2": "2 41310   0.0388  57.1944 0004839 208.2666 278.2089  1.00272631 36225"
      },
      "geometry": {
        "type": "Point",
        "coordinates": [
          54.757479036271846,
          0.014046966534382603
        ]
      }
    },
    {
      "type": "Feature",
      "properties": {
        "norad_id": 41382,
        "name": "EUTELSAT 65 WEST A",
        "group": "eutelsat",
        "lat": -0.023802940148157634,
        "lon": -19.46159995104657,
        "alt_km": 35783.06170800771,
        "timestamp": "2025-12-10T21:43:21.758038+00:00",
        "meta_object_name": "EUTELSAT 65 WEST A",
        "meta_object_id": "2016-014A",
        "meta_epoch": "2025-12-10T04:07:38.715168",
        "meta_mean_motion": 1.00272579,
        "meta_eccentricity": 0.00026195,
        "meta_inclination": 0.0501,
        "meta_ra_of_asc_node": 7.2682,
        "meta_arg_of_pericenter": 258.3578,
        "meta_mean_anomaly": 170.2329,
        "meta_ephemeris_type": 0,
        "meta_classification_type": "U",
        "meta_norad_cat_id": 41382,
        "meta_element_set_no": 999,
        "meta_rev_at_epoch": 3564,
        "meta_bstar": 0,
        "meta_mean_motion_dot": -2.73e-06,
        "meta_mean_motion_ddot": 0,
        "tle_line1": "1 41382U 16014A   25344.17197587 -.00000273  00000+0  00000+0 0  9994",
        "tle_line2": "2 41382   0.0501   7.2682 0002619 258.3578 170.2329  1.00272579 35642"
      },
      "geometry": {
        "type": "Point",
        "coordinates": [
          -19.46159995104657,
          -0.023802940148157634
        ]
      }
    },
    {
      "type": "Feature",
      "properties": {
        "norad_id": 41589,
        "name": "EUTELSAT 117 WEST B",
        "group": "eutelsat",
        "lat": 0.005693577158018301,
        "lon": -71.27653535640034,
        "alt_km": 35787.00798312384,
        "timestamp": "2025-12-10T21:43:21.758054+00:00",
        "meta_object_name": "EUTELSAT 117 WEST B",
        "meta_object_id": "2016-038B",
        "meta_epoch": "2025-12-10T08:50:38.825088",
        "meta_mean_motion": 1.00272599,
        "meta_eccentricity": 3.07e-05,
        "meta_inclination": 0.0104,
        "meta_ra_of_asc_node": 149.7768,
        "meta_arg_of_pericenter": 293.6886,
        "meta_mean_anomaly": 11.5535,
        "meta_ephemeris_type": 0,
        "meta_classification_type": "U",
        "meta_norad_cat_id": 41589,
        "meta_element_set_no": 999,
        "meta_rev_at_epoch": 3477,
        "meta_bstar": 0,
        "meta_mean_motion_dot": -8e-08,
        "meta_mean_motion_ddot": 0,
        "tle_line1": "1 41589U 16038B   25344.36850492 -.00000008  00000+0  00000+0 0  9997",
        "tle_line2": "2 41589   0.0104 149.7768 0000307 293.6886  11.5535  1.00272599 34774"
      },
      "geometry": {
        "type": "Point",
        "coordinates": [
          -71.27653535640034,
          0.005693577158018301
        ]
      }
    },
    {
      "type": "Feature",
      "properties": {
        "norad_id": 42741,
        "name": "EUTELSAT 172B",
        "group": "eutelsat",
        "lat": -0.004122391106898211,
        "lon": -142.29071280557886,
        "alt_km": 35786.275385336085,
        "timestamp": "2025-12-10T21:43:21.758071+00:00",
        "meta_object_name": "EUTELSAT 172B",
        "meta_object_id": "2017-029B",
        "meta_epoch": "2025-12-10T13:38:19.502592",
        "meta_mean_motion": 1.00269422,
        "meta_eccentricity": 1.155e-05,
        "meta_inclination": 0.0147,
        "meta_ra_of_asc_node": 96.9551,
        "meta_arg_of_pericenter": 140.5526,
        "meta_mean_anomaly": 218.6169,
        "meta_ephemeris_type": 0,
        "meta_classification_type": "U",
        "meta_norad_cat_id": 42741,
        "meta_element_set_no": 999,
        "meta_rev_at_epoch": 3184,
        "meta_bstar": 0,
        "meta_mean_motion_dot": -2e-08,
        "meta_mean_motion_ddot": 0,
        "tle_line1": "1 42741U 17029B   25344.56828128 -.00000002  00000+0  00000+0 0  9996",
        "tle_line2": "2 42741   0.0147  96.9551 0000115 140.5526 218.6169  1.00269422 31842"
      },
      "geometry": {
        "type": "Point",
        "coordinates": [
          -142.29071280557886,
          -0.004122391106898211
        ]
      }
    }
  ]
}